{"type": "FeatureCollection", "features": [ {"type": "Feature", "properties": {"norad_id": 66639, "name": "STARLINK-35908", "group": "last-30-days", "lat": 8.017164951291072, "lon": -158.33544220705838, "alt_km": 394.4344567697026, "timestamp": "2025-12-10T23:33:11.623636+00:00", "meta": {"OBJECT_NAME": "STARLINK-35908", "OBJECT_ID": "2025-271Y", "EPOCH": "2025-12-10T14:00:03.000384", "MEAN_MOTION": 15.59332015, "ECCENTRICITY": 9.148e-05, "INCLINATION": 53.1602, "RA_OF_ASC_NODE": 197.533, "ARG_OF_PERICENTER": 102.3227, "MEAN_ANOMALY": 193.4905, "EPHEMERIS_TYPE": 0, "CLASSIFICATION_TYPE": "U", "NORAD_CAT_ID": 66639, "ELEMENT_SET_NO": 999, "REV_AT_EPOCH": 389, "BSTAR": -0.027913859, "MEAN_MOTION_DOT": -0.01970202, "MEAN_MOTION_DDOT": 0}, "tle": {"line1": "1 66639U 25271Y   25344.58336806 -.01970202  00000+0 -27914-1 0  9990", "line2": "2 66639  53.1602 197.5330 0000914 102.3227 193.4905 15.59332015  3893"}}, "geometry": {"type": "Point", "coordinates": [-158.33544220705838, 8.017164951291072]}}, {"type": "Feature", "properties": {"norad_id": 66640, "name": "STARLINK-35921", "group": "last-30-days", "lat": 9.540148880641441, "lon": -157.161767757007, "alt_km": 394.30798063564635, "timestamp": "2025-12-10T23:33:11.623645+00:00", "meta": {"OBJECT_NAME": "STARLINK-35921", "OBJECT_ID": "2025-271Z", "EPOCH": "2025-12-10T14:00:03.000384", "MEAN_MOTION": 15.59338412, "ECCENTRICITY": 0.00010608, "INCLINATION": 53.1601, "RA_OF_ASC_NODE": 197.5296, "ARG_OF_PERICENTER": 126.1402, "MEAN_ANOMALY": 171.5885, "EPHEMERIS_TYPE": 0, "CLASSIFICATION_TYPE": "U", "NORAD_CAT_ID": 66640, "ELEMENT_SET_NO": 999, "REV_AT_EPOCH": 389, "BSTAR": -0.028099579, "MEAN_MOTION_DOT": -0.01982224, "MEAN_MOTION_DDOT": 0}, "tle": {"line1": "1 66640U 25271Z   25344.58336806 -.01982224  00000+0 -28100-1 0  9997", "line2": "2 66640  53.1601 197.5296 0001060 126.1402 171.5885 15.59338412  3898"}}, "geometry": {"type": "Point", "coordinates": [-157.161767757007, 9.540148880641441]}}, {"type": "Feature", "properties": {"norad_id": 66641, "name": "STARLINK-35923", "group": "last-30-days", "lat": 15.591962868740902, "lon": -152.3414661783951, "alt_km": 393.2561826409765, "timestamp": "2025-12-10T23:33:11.623655+00:00", "meta": {"OBJECT_NAME": "STARLINK-35923", "OBJECT_ID": "2025-271AA", "EPOCH": "2025-12-10T14:00:03.000384", "MEAN_MOTION": 15.59339206, "ECCENTRICITY": 8.726e-05, "INCLINATION": 53.1603, "RA_OF_ASC_NODE": 197.5123, "ARG_OF_PERICENTER": 106.078, "MEAN_ANOMALY": 199.3192, "EPHEMERIS_TYPE": 0, "CLASSIFICATION_TYPE": "U", "NORAD_CAT_ID": 66641, "ELEMENT_SET_NO": 999, "REV_AT_EPOCH": 389, "BSTAR": -0.028122958, "MEAN_MOTION_DOT": -0.01983595, "MEAN_MOTION_DDOT": 0}, "tle": {"line1": "1 66641U 25271AA  25344.58336806 -.01983595  00000+0 -28123-1 0  9995", "line2": "2 66641  53.1603 197.5123 0000872 106.0780 199.3192 15.59339206  3897"}}, "geometry": {"type": "Point", "coordinates": [-152.3414661783951, 15.591962868740902]}}, {"type": "Feature", "properties": {"norad_id": 66642, "name": "STARLINK-35926", "group": "last-30-days", "lat": 14.087755306350097, "lon": -153.5679221048418, "alt_km": 393.44525528577924, "timestamp": "2025-12-10T23:33:11.623664+00:00", "meta": {"OBJECT_NAME": "STARLINK-35926", "OBJECT_ID": "2025-271AB", "EPOCH": "2025-12-10T14:00:03.000384", "MEAN_MOTION": 15.59332353, "ECCENTRICITY": 8.577e-05, "INCLINATION": 53.1603, "RA_OF_ASC_NODE": 197.5174, "ARG_OF_PERICENTER": 100.8727, "MEAN_ANOMALY": 202.6093, "EPHEMERIS_TYPE": 0, "CLASSIFICATION_TYPE": "U", "NORAD_CAT_ID": 66642, "ELEMENT_SET_NO": 999, "REV_AT_EPOCH": 365, "BSTAR": -0.02794785, "MEAN_MOTION_DOT": -0.01972291, "MEAN_MOTION_DDOT": 0}, "tle": {"line1": "1 66642U 25271AB  25344.58336806 -.01972291  00000+0 -27948-1 0  9991", "line2": "2 66642  53.1603 197.5174 0000857 100.8727 202.6093 15.59332353  3658"}}, "geometry": {"type": "Point", "coordinates": [-153.5679221048418, 14.087755306350097]}}, {"type": "Feature", "properties": {"norad_id": 66643, "name": "STARLINK-35918", "group": "last-30-days", "lat": 11.060162849480628, "lon": -155.9772825566962, "alt_km": 394.0514559107778, "timestamp": "2025-12-10T23:33:11.623672+00:00", "meta": {"OBJECT_NAME": "STARLINK-35918", "OBJECT_ID": "2025-271AC", "EPOCH": "2025-12-10T14:00:03.000384", "MEAN_MOTION": 15.59336382, "ECCENTRICITY": 0.00010681, "INCLINATION": 53.1602, "RA_OF_ASC_NODE": 197.5257, "ARG_OF_PERICENTER": 125.3502, "MEAN_ANOMALY": 174.2964, "EPHEMERIS_TYPE": 0, "CLASSIFICATION_TYPE": "U", "NORAD_CAT_ID": 66643, "ELEMENT_SET_NO": 999, "REV_AT_EPOCH": 389, "BSTAR": -0.028058244, "MEAN_MOTION_DOT": -0.01979536, "MEAN_MOTION_DDOT": 0}, "tle": {"line1": "1 66643U 25271AC  25344.58336806 -.01979536  00000+0 -28058-1 0  9994", "line2": "2 66643  53.1602 197.5257 0001068 125.3502 174.2964 15.59336382  3891"}}, "geometry": {"type": "Point", "coordinates": [-155.9772825566962, 11.060162849480628]}}, {"type": "Feature", "properties": {"norad_id": 66644, "name": "STARLINK-35938", "group": "last-30-days", "lat": 12.575665711854509, "lon": -154.78043180425792, "alt_km": 393.7999016264175, "timestamp": "2025-12-10T23:33:11.623684+00:00", "meta": {"OBJECT_NAME": "STARLINK-35938", "OBJECT_ID": "2025-271AD", "EPOCH": "2025-12-10T14:00:03.000384", "MEAN_MOTION": 15.59333944, "ECCENTRICITY": 0.00010486, "INCLINATION": 53.1601, "RA_OF_ASC_NODE": 197.5216, "ARG_OF_PERICENTER": 126.4078, "MEAN_ANOMALY": 175.1556, "EPHEMERIS_TYPE": 0, "CLASSIFICATION_TYPE": "U", "NORAD_CAT_ID": 66644, "ELEMENT_SET_NO": 999, "REV_AT_EPOCH": 389, "BSTAR": -0.027985059, "MEAN_MOTION_DOT": -0.0197483, "MEAN_MOTION_DDOT": 0}, "tle": {"line1": "1 66644U 25271AD  25344.58336806 -.01974830  00000+0 -27985-1 0  9995", "line2": "2 66644  53.1601 197.5216 0001048 126.4078 175.1556 15.59333944  3892"}}, "geometry": {"type": "Point", "coordinates": [-154.78043180425792, 12.575665711854509]}}, {"type": "Feature", "properties": {"norad_id": 66645, "name": "SHENZHOU-22", "group": "last-30-days", "lat": -13.934881812975254, "lon": 11.063124344998469, "alt_km": 386.84416166649225, "timestamp": "2025-12-10T23:33:11.623693+00:00", "meta": {"OBJECT_NAME": "SHENZHOU-22", "OBJECT_ID": "2025-272A", "EPOCH": "2025-12-10T14:25:11.377632", "MEAN_MOTION": 15.59037498, "ECCENTRICITY": 0.00087682, "INCLINATION": 41.4683, "RA_OF_ASC_NODE": 29.6917, "ARG_OF_PERICENTER": 13.0632, "MEAN_ANOMALY": 347.0432, "EPHEMERIS_TYPE": 0, "CLASSIFICATION_TYPE": "U", "NORAD_CAT_ID": 66645, "ELEMENT_SET_NO": 999, "REV_AT_EPOCH": 26357, "BSTAR": 0.00043760673, "MEAN_MOTION_DOT": 0.00034963, "MEAN_MOTION_DDOT": 0}, "tle": {"line1": "1 66645U 25272A   25344.60082613  .00034963  00000+0  43761-3 0  9997", "line2": "2 66645  41.4683  29.6917 0008768  13.0632 347.0432 15.59037498263570"}}, "geometry": {"type": "Point", "coordinates": [11.063124344998469, -13.934881812975254]}}, {"type": "Feature", "properties": {"norad_id": 66647, "name": "COSMOS 2597 (RODNIK-S 22)", "group": "last-30-days", "lat": 8.786112787616043, "lon": 106.37410351045261, "alt_km": 1503.1781505491626, "timestamp": "2025-12-10T23:33:11.623703+00:00", "meta": {"OBJECT_NAME": "COSMOS 2597 (RODNIK-S 22)", "OBJECT_ID": "2025-273A", "EPOCH": "2025-12-10T14:54:03.174048", "MEAN_MOTION": 12.41951299, "ECCENTRICITY": 0.00079363, "INCLINATION": 82.4985, "RA_OF_ASC_NODE": 287.7647, "ARG_OF_PERICENTER": 294.2078, "MEAN_ANOMALY": 65.8171, "EPHEMERIS_TYPE": 0, "CLASSIFICATION_TYPE": "U", "NORAD_CAT_ID": 66647, "ELEMENT_SET_NO": 999, "REV_AT_EPOCH": 187, "BSTAR": 0.00024564696, "MEAN_MOTION_DOT": 4.3e-07, "MEAN_MOTION_DDOT": 0}, "tle": {"line1": "1 66647U 25273A   25344.62087007  .00000043  00000+0  24565-3 0  9997", "line2": "2 66647  82.4985 287.7647 0007936 294.2078  65.8171 12.41951299  1872"}}, "geometry": {"type": "Point", "coordinates": [106.37410351045261, 8.786112787616043]}}, {"type": "Feature", "properties": {"norad_id": 66648, "name": "COSMOS 2598 (RODNIK-S 23)", "group": "last-30-days", "lat": -18.4742668540246, "lon": 110.06467669585747, "alt_km": 1496.1741220192052, "timestamp": "2025-12-10T23:33:11.623712+00:00", "meta": {"OBJECT_NAME": "COSMOS 2598 (RODNIK-S 23)", "OBJECT_ID": "2025-273B", "EPOCH": "2025-12-10T14:45:34.830144", "MEAN_MOTION": 12.42861578, "ECCENTRICITY": 0.00072461, "INCLINATION": 82.5033, "RA_OF_ASC_NODE": 287.7712, "ARG_OF_PERICENTER": 256.3137, "MEAN_ANOMALY": 103.7137, "EPHEMERIS_TYPE": 0, "CLASSIFICATION_TYPE": "U", "NORAD_CAT_ID": 66648, "ELEMENT_SET_NO": 999, "REV_AT_EPOCH": 187, "BSTAR": 0.00011961638, "MEAN_MOTION_DOT": 2.6e-07, "MEAN_MOTION_DDOT": 0}, "tle": {"line1": "1 66648U 25273B   25344.61498646  .00000026  00000+0  11962-3 0  9990", "line2": "2 66648  82.5033 287.7712 0007246 256.3137 103.7137 12.42861578  1875"}}, "geometry": {"type": "Point", "coordinates": [110.06467669585747, -18.4742668540246]}}, {"type": "Feature", "properties": {"norad_id": 66649, "name": "COSMOS 2599 (RODNIK-S 24)", "group": "last-30-days", "lat": 24.024887482012343, "lon": 104.19215021734925, "alt_km": 1504.173912082102, "timestamp": "2025-12-10T23:33:11.623721+00:00", "meta": {"OBJECT_NAME": "COSMOS 2599 (RODNIK-S 24)", "OBJECT_ID": "2025-273C", "EPOCH": "2025-12-10T09:10:48.874368", "MEAN_MOTION": 12.41671984, "ECCENTRICITY": 0.00081363, "INCLINATION": 82.5026, "RA_OF_ASC_NODE": 287.9284, "ARG_OF_PERICENTER": 305.4049, "MEAN_ANOMALY": 54.6269, "EPHEMERIS_TYPE": 0, "CLASSIFICATION_TYPE": "U", "NORAD_CAT_ID": 66649, "ELEMENT_SET_NO": 999, "REV_AT_EPOCH": 184, "BSTAR": 0.00040009668, "MEAN_MOTION_DOT": 6.4e-07, "MEAN_MOTION_DDOT": 0}, "tle": {"line1": "1 66649U 25273C   25344.38251012  .00000064  00000+0  40010-3 0  9997", "line2": "2 66649  82.5026 287.9284 0008136 305.4049  54.6269 12.41671984  1847"}}, "geometry": {"type": "Point", "coordinates": [104.19215021734925, 24.024887482012343]}}]}